{
  "type": "FeatureCollection",
  "features": [
    {
      "type": "Feature",
      "properties": {
        "norad_id": 39160,
        "name": "VNREDSAT 1",
        "group": "resource",
        "lat": -72.17363133925127,
        "lon": 68.65320195107435,
        "alt_km": 685.4084368180856,
        "timestamp": "2025-12-13T16:48:32.370370+00:00",
        "meta_object_name": "VNREDSAT 1",
        "meta_object_id": "2013-021B",
        "meta_epoch": "2025-12-13T00:45:12.205728",
        "meta_mean_motion": 14.64923976,
        "meta_eccentricity": 0.00013043,
        "meta_inclination": 97.9371,
        "meta_ra_of_asc_node": 42.2956,
        "meta_arg_of_pericenter": 77.711,
        "meta_mean_anomaly": 282.424,
        "meta_ephemeris_type": 0,
        "meta_classification_type": "U",
        "meta_norad_cat_id": 39160,
        "meta_element_set_no": 999,
        "meta_rev_at_epoch": 67303,
        "meta_bstar": 0.00024051794,
        "meta_mean_motion_dot": 1.241e-05,
        "meta_mean_motion_ddot": 0,
        "tle_line1": "1 39160U 13021B   25347.03139127  .00001241  00000+0  24052-3 0  9996",
        "tle_line2": "2 39160  97.9371  42.2956 0001304  77.7110 282.4240 14.64923976673038"
      },
      "geometry": {
        "type": "Point",
        "coordinates": [
          68.65320195107435,
          -72.17363133925127
        ]
      }
    },
    {
      "type": "Feature",
      "properties": {
        "norad_id": 39227,
        "name": "ARIRANG-5 (KOMPSAT-5)",
        "group": "resource",
        "lat": 38.350748660264365,
        "lon": -1.9339573836010313,
        "alt_km": 550.1453811456231,
        "timestamp": "2025-12-13T16:48:32.370380+00:00",
        "meta_object_name": "ARIRANG-5 (KOMPSAT-5)",
        "meta_object_id": "2013-042A",
        "meta_epoch": "2025-12-13T00:13:19.022016",
        "meta_mean_motion": 15.04507367,
        "meta_eccentricity": 0.0003591,
        "meta_inclination": 97.6146,
        "meta_ra_of_asc_node": 171.3092,
        "meta_arg_of_pericenter": 54.8401,
        "meta_mean_anomaly": 305.3161,
        "meta_ephemeris_type": 0,
        "meta_classification_type": "U",
        "meta_norad_cat_id": 39227,
        "meta_element_set_no": 999,
        "meta_rev_at_epoch": 67586,
        "meta_bstar": 0.00024443289,
        "meta_mean_motion_dot": 3.362e-05,
        "meta_mean_motion_ddot": 0,
        "tle_line1": "1 39227U 13042A   25347.00924794  .00003362  00000+0  24443-3 0  9992",
        "tle_line2": "2 39227  97.6146 171.3092 0003591  54.8401 305.3161 15.04507367675860"
      },
      "geometry": {
        "type": "Point",
        "coordinates": [
          -1.9339573836010313,
          38.350748660264365
        ]
      }
    },
    {
      "type": "Feature",
      "properties": {
        "norad_id": 39418,
        "name": "SKYSAT-A",
        "group": "resource",
        "lat": 1.3604001507541403,
        "lon": -141.9431979953223,
        "alt_km": 525.875914824479,
        "timestamp": "2025-12-13T16:48:32.370391+00:00",
        "meta_object_name": "SKYSAT-A",
        "meta_object_id": "2013-066C",
        "meta_epoch": "2025-12-12T20:57:19.652832",
        "meta_mean_motion": 15.11607279,
        "meta_eccentricity": 0.00206559,
        "meta_inclination": 97.4113,
        "meta_ra_of_asc_node": 37.0775,
        "meta_arg_of_pericenter": 235.9337,
        "meta_mean_anomaly": 123.9933,
        "meta_ephemeris_type": 0,
        "meta_classification_type": "U",
        "meta_norad_cat_id": 39418,
        "meta_element_set_no": 999,
        "meta_rev_at_epoch": 66032,
        "meta_bstar": 0.00033291864,
        "meta_mean_motion_dot": 5.619e-05,
        "meta_mean_motion_ddot": 0,
        "tle_line1": "1 39418U 13066C   25346.87314413  .00005619  00000+0  33292-3 0  9994",
        "tle_line2": "2 39418  97.4113  37.0775 0020655 235.9337 123.9933 15.11607279660327"
      },
      "geometry": {
        "type": "Point",
        "coordinates": [
          -141.9431979953223,
          1.3604001507541403
        ]
      }
    },
    {
      "type": "Feature",
      "properties": {
        "norad_id": 39419,
        "name": "DUBAISAT-2",
        "group": "resource",
        "lat": -49.9465532950407,
        "lon": -12.972693233314846,
        "alt_km": 540.8052979296208,
        "timestamp": "2025-12-13T16:48:32.370400+00:00",
        "meta_object_name": "DUBAISAT-2",
        "meta_object_id": "2013-066D",
        "meta_epoch": "2025-12-12T23:31:07.799232",
        "meta_mean_motion": 15.08365998,
        "meta_eccentricity": 0.00106557,
        "meta_inclination": 97.4455,
        "meta_ra_of_asc_node": 337.3799,
        "meta_arg_of_pericenter": 320.6595,
        "meta_mean_anomaly": 39.3859,
        "meta_ephemeris_type": 0,
        "meta_classification_type": "U",
        "meta_norad_cat_id": 39419,
        "meta_element_set_no": 999,
        "meta_rev_at_epoch": 65830,
        "meta_bstar": 0.00053384122,
        "meta_mean_motion_dot": 8.248e-05,
        "meta_mean_motion_ddot": 0,
        "tle_line1": "1 39419U 13066D   25346.97995138  .00008248  00000+0  53384-3 0  9990",
        "tle_line2": "2 39419  97.4455 337.3799 0010655 320.6595  39.3859 15.08365998658303"
      },
      "geometry": {
        "type": "Point",
        "coordinates": [
          -12.972693233314846,
          -49.9465532950407
        ]
      }
    },
    {
      "type": "Feature",
      "properties": {
        "norad_id": 39574,
        "name": "GPM-CORE",
        "group": "resource",
        "lat": -29.69172810127587,
        "lon": 44.9147622110236,
        "alt_km": 432.19124372964416,
        "timestamp": "2025-12-13T16:48:32.370411+00:00",
        "meta_object_name": "GPM-CORE",
        "meta_object_id": "2014-009C",
        "meta_epoch": "2025-12-13T00:20:55.419648",
        "meta_mean_motion": 15.44471184,
        "meta_eccentricity": 0.00098252,
        "meta_inclination": 64.9736,
        "meta_ra_of_asc_node": 211.7601,
        "meta_arg_of_pericenter": 245.2747,
        "meta_mean_anomaly": 114.7372,
        "meta_ephemeris_type": 0,
        "meta_classification_type": "U",
        "meta_norad_cat_id": 39574,
        "meta_element_set_no": 999,
        "meta_rev_at_epoch": 66905,
        "meta_bstar": 0.00024919516,
        "meta_mean_motion_dot": 0.00011388,
        "meta_mean_motion_ddot": 0,
        "tle_line1": "1 39574U 14009C   25347.01453032  .00011388  00000+0  24920-3 0  9991",
        "tle_line2": "2 39574  64.9736 211.7601 0009825 245.2747 114.7372 15.44471184669058"
      },
      "geometry": {
        "type": "Point",
        "coordinates": [
          44.9147622110236,
          -29.69172810127587
        ]
      }
    },
    {
      "type": "Feature",
      "properties": {
        "norad_id": 39634,
        "name": "SENTINEL-1A",
        "group": "resource",
        "lat": 51.863947481600356,
        "lon": -176.5147270405524,
        "alt_km": 690.3180737219254,
        "timestamp": "2025-12-13T16:48:32.370421+00:00",
        "meta_object_name": "SENTINEL-1A",
        "meta_object_id": "2014-016A",
        "meta_epoch": "2025-12-12T23:46:13.965024",
        "meta_mean_motion": 14.59201274,
        "meta_eccentricity": 0.00012456,
        "meta_inclination": 98.1807,
        "meta_ra_of_asc_node": 352.2281,
        "meta_arg_of_pericenter": 83.4741,
        "meta_mean_anomaly": 276.66,
        "meta_ephemeris_type": 0,
        "meta_classification_type": "U",
        "meta_norad_cat_id": 39634,
        "meta_element_set_no": 999,
        "meta_rev_at_epoch": 62286,
        "meta_bstar": 0.00010505557,
        "meta_mean_motion_dot": 4.5e-06,
        "meta_mean_motion_ddot": 0,
        "tle_line1": "1 39634U 14016A   25346.99043941  .00000450  00000+0  10506-3 0  9999",
        "tle_line2": "2 39634  98.1807 352.2281 0001245  83.4741 276.6600 14.59201274622868"
      },
      "geometry": {
        "type": "Point",
        "coordinates": [
          -176.5147270405524,
          51.863947481600356
        ]
      }
    },
    {
      "type": "Feature",
      "properties": {
        "norad_id": 39731,
        "name": "KAZEOSAT 1",
        "group": "resource",
        "lat": 41.995677671404636,
        "lon": 51.994069831761834,
        "alt_km": 747.7449420420944,
        "timestamp": "2025-12-13T16:48:32.370431+00:00",
        "meta_object_name": "KAZEOSAT 1",
        "meta_object_id": "2014-024A",
        "meta_epoch": "2025-12-12T23:57:35.483040",
        "meta_mean_motion": 14.42063169,
        "meta_eccentricity": 0.00011187,
        "meta_inclination": 98.3428,
        "meta_ra_of_asc_node": 58.8993,
        "meta_arg_of_pericenter": 94.71,
        "meta_mean_anomaly": 265.4217,
        "meta_ephemeris_type": 0,
        "meta_classification_type": "U",
        "meta_norad_cat_id": 39731,
        "meta_element_set_no": 999,
        "meta_rev_at_epoch": 61172,
        "meta_bstar": 0.00016671068,
        "meta_mean_motion_dot": 5.05e-06,
        "meta_mean_motion_ddot": 0,
        "tle_line1": "1 39731U 14024A   25346.99832735  .00000505  00000+0  16671-3 0  9993",
        "tle_line2": "2 39731  98.3428  58.8993 0001118  94.7100 265.4217 14.42063169611723"
      },
      "geometry": {
        "type": "Point",
        "coordinates": [
          51.994069831761834,
          41.995677671404636
        ]
      }
    }
  ]
}